SIRION PATHFINDER-2     
1 43759U 18099B   26170.69233594  .00004059  00000+0  22350-3 0  9994
2 43759  97.4247 219.6903 0007158 293.9955  66.0528 15.14565833413002
CORVUS BC4              
1 43767U 18099K   26170.37151364  .00003156  00000+0  18477-3 0  9994
2 43767  97.4063 213.2881 0008069   5.8995 354.2330 15.12510338412738
M2 PATHFINDER           
1 45727U 20037E   26170.57390124  .00001202  00000+0  89866-4 0  9999
2 45727  97.8143   1.8325 0012507 139.3083 220.9080 15.04681666325857
NETSAT-4                
1 46504U 20068U   26170.00438907  .00013363  00000+0  29599-3 0  9994
2 46504  97.8604 178.3912 0003622 329.8172  30.2865 15.43912955316054
NETSAT-3                
1 46505U 20068V   26170.46608847  .00016430  00000+0  37774-3 0  9999
2 46505  97.8655 177.1036 0003888 352.2858   7.8328 15.42747216316037
NETSAT-1                
1 46506U 20068W   26170.48271503  .00010074  00000+0  30211-3 0  9994
2 46506  97.8748 171.4257 0004781  25.4867 334.6610 15.34687263315653
NETSAT-2                
1 46507U 20068X   26170.55970238  .00019174  00000+0  39346-3 0  9992
2 46507  97.8616 178.8939 0003148  19.0109 341.1256 15.46083868316104
GREENCUBE (IO-117)      
1 53109U 22080E   26170.67448081 -.00000003  00000+0  00000+0 0  9996
2 53109  70.1442 297.3799 0008827 289.0639  70.9064  6.42583159 92220
SITRO-AIS 5 (KATYS)     
1 57176U 23091L   26170.81778392  .00009792  00000+0  34416-3 0  9999
2 57176  97.5056 234.7424 0012724  95.3545 264.9147 15.29506613164746
SITRO-AIS 6 (CHIRKIN)   
1 57192U 23091AC  26170.80280637  .00008137  00000+0  31878-3 0  9997
2 57192  97.5062 233.8325 0013097  98.4940 261.7783 15.25975014164683
SITRO-AIS 8 (ANOKHIN)   
1 57193U 23091AD  26170.83020428  .00011735  00000+0  37910-3 0  9992
2 57193  97.5051 236.3544 0011738  91.9531 268.3055 15.32196953164856
SITRO-AIS 7 (FARTUSHNIY)
1 57194U 23091AE  26170.80648997  .00007752  00000+0  30670-3 0  9997
2 57194  97.5059 233.6598 0012951  99.3896 260.8807 15.25662167164677
SITRO-AIS 10 (BURDAEV)  
1 57199U 23091AK  26170.85061481  .00016418  00000+0  43084-3 0  9996
2 57199  97.5076 241.4567 0007320  72.2733 287.9310 15.38696740165171
SITRO-AIS 9 (SHCHUKIN)  
1 57201U 23091AM  26170.81281418  .00016507  00000+0  44017-3 0  9996
2 57201  97.5074 241.1459 0007593  72.7341 287.4734 15.38200928165154
SITRO-AIS 12 (SMIRENNIY)
1 57204U 23091AQ  26170.86797628  .00016549  00000+0  43714-3 0  9998
2 57204  97.5087 241.6713 0007091  67.4626 292.7369 15.38496240165189
SITRO-AIS 11 (SHEFFER)  
1 57208U 23091AU  26170.81562775  .00016669  00000+0  43425-3 0  9992
2 57208  97.5085 241.8659 0007001  67.5806 292.6180 15.38920344165192
SITRO-AIS 25            
1 59066U 24039R   26170.85511831  .00002321  00000+0  18302-3 0  9996
2 59066  95.3905 236.9260 0143116 319.3382  39.7225 14.93524453125121
SITRO-AIS 26            
1 59067U 24039S   26170.85685422  .00002095  00000+0  16619-3 0  9992
2 59067  95.3909 236.8242 0143547 319.9363  39.1342 14.93320239125117
SITRO-AIS 27            
1 59068U 24039T   26170.82634784  .00001752  00000+0  13829-3 0  9994
2 59068  95.3913 237.0762 0142585 318.6432  40.4065 14.93739993125137
SITRO-AIS 28            
1 59071U 24039U   26170.87072098  .00002115  00000+0  16616-3 0  9998
2 59071  95.3912 237.1542 0142458 318.3169  40.7268 14.93774711125146
GRBBETA                 
1 60237U 24128C   26170.54292137  .00002191  00000+0  15906-3 0  9990
2 60237  61.9881 208.0011 0040352 135.1213 225.3155 15.06650427106629
OOV-CUBE (TUBSAT-30)    
1 60240U 24128F   26170.58394809  .00001296  00000+0  11023-3 0  9998
2 60240  61.9930 217.2156 0044338 134.2886 226.1856 15.02780984106472
ROBUSTA-3A (MEDITERRAN*)
1 60243U 24128J   26170.38384092  .00004256  00000+0  25697-3 0  9993
2 60243  61.9845 200.4756 0041136 128.3668 232.1135 15.11694010106757
LASARSAT                
1 62391U 24247Q   26170.49548139  .00028780  00000+0  57166-3 0  9991
2 62391  44.9733 249.2437 0007938 344.7299  15.3350 15.46491567 83678
CROCUBE                 
1 62394U 24247T   26170.49048578  .00032668  00000+0  60622-3 0  9997
2 62394  44.9701 246.5654 0007740 349.0739  10.9982 15.48397693 83708
FORESAIL-1 PRIME        
1 66778U 25276DS  26170.43439938  .00004058  00000+0  19871-3 0  9990
2 66778  97.4197 243.6644 0003961  98.6161 261.5522 15.18719306 30740
KNACKSAT-2              
1 67683U 98067XZ  26170.59247606  .00040473  00000+0  49084-3 0  9990
2 67683  51.6307 282.3774 0008934 225.7617 134.2643 15.60167582 20658
